[
  {
    "OBJECT_NAME": "coke-zero-STARLINK-FIXTURE-1",
    "OBJECT_ID": "2026-003A",
    "NORAD_CAT_ID": 99003,
    "EPOCH": "2026-05-02T00:00:00.000000",
    "MEAN_MOTION": 15.0639,
    "ECCENTRICITY": 0.00017,
    "INCLINATION": 53.0,
    "RA_OF_ASC_NODE": 208.4,
    "ARG_OF_PERICENTER": 88.2,
    "MEAN_ANOMALY": 271.8,
    "EPHEMERIS_TYPE": 0,
    "CLASSIFICATION_TYPE": "U",
    "ELEMENT_SET_NO": 1,
    "REV_AT_EPOCH": 44,
    "BSTAR": 0.00012,
    "MEAN_MOTION_DOT": 0.00001,
    "MEAN_MOTION_DDOT": 0.0
  }
]
